QIANFAN-73              
1 63159U 25046A   25299.72235253  .00000039  00000+0  41252-4 0  9996
2 63159  88.9772 324.8935 0013024 257.9788 101.9904 13.50971887 41061
QIANFAN-74              
1 63160U 25046B   25299.70587615  .00000028  00000+0  24847-4 0  9997
2 63160  88.9772 324.7835 0002108  95.5273 264.6119 13.50973755 41125
QIANFAN-75              
1 63161U 25046C   25299.69339620  .00000114  00000+0  15782-3 0  9990
2 63161  88.9774 325.0177 0014120 261.6217  98.3334 13.50982642 40992
QIANFAN-76              
1 63162U 25046D   25299.68942576 -.00000100  00000+0 -17353-3 0  9993
2 63162  88.9772 324.9988 0011728 262.1704  97.8116 13.50972022 41003
QIANFAN-77              
1 63163U 25046E   25299.73945264  .00000153  00000+0  10136-3 0  9995
2 63163  88.9771 323.3867 0013329 220.6844 139.3338 13.96076986 41894
QIANFAN-78              
1 63164U 25046F   25299.73058970  .00000026  00000+0  22510-4 0  9994
2 63164  88.9773 324.8593 0013043 264.7193  95.2470 13.50974108 41089
QIANFAN-79              
1 63165U 25046G   25299.68521126  .00000033  00000+0  32571-4 0  9993
2 63165  88.9777 324.9697 0012744 262.8182  97.1521 13.50973582 41021
QIANFAN-80              
1 63166U 25046H   25299.77584071  .00000070  00000+0  89447-4 0  9997
2 63166  88.9773 324.6683 0011688 267.5751  92.4062 13.50974814 41195
